[{"OBJECT_NAME":"STARLINK-36399","OBJECT_ID":"2026-022T","EPOCH":"2026-03-09T22:00:01.999584","MEAN_MOTION":15.71792119,"ECCENTRICITY":0.00016834,"INCLINATION":97.2851,"RA_OF_ASC_NODE":102.9352,"ARG_OF_PERICENTER":72.1308,"MEAN_ANOMALY":36.5524,"EPHEMERIS_TYPE":0,"CLASSIFICATION_TYPE":"U","NORAD_CAT_ID":67665,"ELEMENT_SET_NO":999,"REV_AT_EPOCH":608,"BSTAR":-0.016767804,"MEAN_MOTION_DOT":-0.01884345,"MEAN_MOTION_DDOT":0},{"OBJECT_NAME":"UNKNOWN","OBJECT_ID":"","EPOCH":"2026-03-08T17:20:50.157600","MEAN_MOTION":7.58601412,"ECCENTRICITY":0.384707,"INCLINATION":62.8813,"RA_OF_ASC_NODE":298.2782,"ARG_OF_PERICENTER":0.6288,"MEAN_ANOMALY":359.7763,"EPHEMERIS_TYPE":0,"CLASSIFICATION_TYPE":"U","NORAD_CAT_ID":81111,"ELEMENT_SET_NO":999,"REV_AT_EPOCH":27845,"BSTAR":0.0031661,"MEAN_MOTION_DOT":0.00015759,"MEAN_MOTION_DDOT":0}]
